EUTELSAT 21B            
1 38992U 12062B   25260.15894466  .00000110  00000+0  00000+0 0  9990
2 38992   0.0715  11.0801 0002795 172.4771 251.6279  1.00274841 47087
EUTELSAT 70B            
1 39020U 12069A   25260.16865138 -.00000064  00000+0  00000+0 0  9994
2 39020   0.0659 347.5767 0004063 192.5762 307.4262  1.00272865 46779
EUTELSAT 117 WEST A     
1 39122U 13012A   25260.24628236 -.00000033  00000+0  00000+0 0  9997
2 39122   0.0225 275.7495 0002888 269.3417 143.2043  1.00270559 45695
EUTELSAT 7B             
1 39163U 13022A   25260.22741162  .00000028  00000+0  00000+0 0  9998
2 39163   0.0675 355.3472 0000761   2.6607  87.2550  1.00271967 45229
EXPRESS-AT1             
1 39612U 14010A   25259.16664606  .00000060  00000+0  00000+0 0  9999
2 39612   0.0190 199.6373 0000384 321.1030 310.6241  1.00272851 42072
EXPRESS-AT2             
1 39613U 14010B   25259.92822444 -.00000301  00000+0  00000+0 0  9999
2 39613   0.0122 229.1489 0000099  55.6018 185.3747  1.00272603 41761
EUTELSAT 3B             
1 39773U 14030A   25260.22663162  .00000000  00000+0  00000+0 0  9998
2 39773   0.0639 346.2473 0004526 191.3845 263.4757  1.00273387 41332
EUTELSAT 115 WEST B     
1 40425U 15010B   25259.70367921 -.00000045  00000+0  00000+0 0  9998
2 40425   0.0378  21.2503 0000028 236.4254 236.6493  1.00271795 38651
